NORAD_CAT_ID,OBJECT_NAME,OBJECT_TYPE,EPOCH,MEAN_MOTION,ECCENTRICITY,INCLINATION,RA_OF_ASC_NODE,ARG_OF_PERICENTER,MEAN_ANOMALY,BSTAR,MEAN_MOTION_DOT,MEAN_MOTION_DDOT,TLE_LINE0,TLE_LINE1,TLE_LINE2,SEMIMAJOR_AXIS,PERIOD,APOGEE,PERIGEE,DECAYED
52681.0,STARLINK-4068,PAYLOAD,2022-07-18 06:00:00,15.43081503,0.0001476,53.2174,358.5348,53.6674,123.1679,-0.025865,-0.01052817,0.0,0 STARLINK-4068,1 52681U 22053AB  22199.25001157 -.01052817  00000-0 -25865-1 0  9991,2 52681  53.2174 358.5348 0001476  53.6674 123.1679 15.43081503  9874,6815.158,93.32,438.029,436.017,0.0
52681.0,STARLINK-4068,PAYLOAD,2022-07-18 14:00:01,15.42322646,0.0001528,53.2176,356.9588,53.0355,176.0762,-0.026563,-0.01068467,0.0,0 STARLINK-4068,1 52681U 22053AB  22199.58334491 -.01068467  00000-0 -26563-1 0  9991,2 52681  53.2176 356.9588 0001528  53.0355 176.0762 15.42322646  1307,6817.393,93.366,440.3,438.217,0.0
52681.0,STARLINK-4068,PAYLOAD,2022-07-18 22:00:00,15.41562417,0.0001447,53.2172,355.3847,49.2599,231.2159,-0.027192,-0.01066316,0.0,0 STARLINK-4068,1 52681U 22053AB  22199.91667824 -.01066316  00000-0 -27192-1 0  9997,2 52681  53.2172 355.3847 0001447  49.2599 231.2159 15.41562417  1306,6819.634,93.412,442.486,440.513,0.0
52681.0,STARLINK-4068,PAYLOAD,2022-07-19 06:00:00,15.40802715,0.000114,53.2173,353.8096,68.4168,262.5126,-0.027915,-0.01067051,0.0,0 STARLINK-4068,1 52681U 22053AB  22200.25001157 -.01067051  00000-0 -27915-1 0  9998,2 52681  53.2173 353.8096 0001140  68.4168 262.5126 15.40802715 10028,6821.876,93.458,444.519,442.963,0.0
52681.0,STARLINK-4068,PAYLOAD,2022-07-19 14:00:01,15.40046094,0.000133,53.2176,352.23900000000015,50.5403,329.9266,-0.028753,-0.01071409,0.0,0 STARLINK-4068,1 52681U 22053AB  22200.58334491 -.01071409  00000-0 -28753-1 0  9997,2 52681  53.2176 352.2390 0001330  50.5403 329.9266 15.40046094  1300,6824.11,93.504,446.883,445.068,0.0
52681.0,STARLINK-4068,PAYLOAD,2022-07-19 22:00:00,15.39284704,0.0001438,53.2171,350.6704,45.8725,23.221,-0.029368,-0.01067441,0.0,0 STARLINK-4068,1 52681U 22053AB  22200.91667824 -.01067441  00000-0 -29368-1 0  9997,2 52681  53.2171 350.6704 0001438  45.8725  23.2210 15.39284704  1302,6826.36,93.55,449.207,447.244,0.0
52681.0,STARLINK-4068,PAYLOAD,2022-07-20 04:00:00,15.3871634,0.0001266,53.2174,349.4928,52.8888,322.0767,-0.0300269999999999,-0.01070794,0.0,0 STARLINK-4068,1 52681U 22053AB  22201.16667824 -.01070794  00000-0 -30027-1 0  9994,2 52681  53.2174 349.4928 0001266  52.8888 322.0767 15.38716340 10162,6828.041,93.585,450.771,449.042,0.0
52681.0,STARLINK-4068,PAYLOAD,2022-07-20 14:00:01,15.37764707,0.0001684,53.2174,347.5356,46.1668,117.4431,-0.030841,-0.01066487,0.0,0 STARLINK-4068,1 52681U 22053AB  22201.58334491 -.01066487  00000-0 -30841-1 0  9999,2 52681  53.2174 347.5356 0001684  46.1668 117.4431 15.37764707  1301,6830.858,93.642,453.87300000000016,451.573,0.0
52681.0,STARLINK-4068,PAYLOAD,2022-07-20 22:00:01,15.3700635,0.0001375,53.2171,345.9722,66.6668,142.8947,-0.031654,-0.01067673,0.0,0 STARLINK-4068,1 52681U 22053AB  22201.91668981 -.01067673  00000-0 -31654-1 0  9991,2 52681  53.2171 345.9722 0001375  66.6668 142.8947 15.37006350  1308,6833.105,93.689,455.909,454.03,0.0
52681.0,STARLINK-4068,PAYLOAD,2022-07-21 06:00:00,15.36245285,0.0001383,53.2173,344.4079,59.1563,195.319,-0.032368,-0.0106532,0.0,0 STARLINK-4068,1 52681U 22053AB  22202.25001157 -.01065320  00000-0 -32368-1 0  9995,2 52681  53.2173 344.4079 0001383  59.1563 195.3190 15.36245285 10336,6835.361,93.735,458.171,456.281,0.0
52681.0,STARLINK-4068,PAYLOAD,2022-07-21 14:00:01,15.35486705,0.0001496999999999,53.2173,342.8485,48.2525,250.3488,-0.03321,-0.01066498,0.0,0 STARLINK-4068,1 52681U 22053AB  22202.58335648 -.01066498  00000-0 -33210-1 0  9990,2 52681  53.2173 342.8485 0001497  48.2525 250.3488 15.35486705  1304,6837.611999999999,93.781,460.501,458.454,0.0
52681.0,STARLINK-4068,PAYLOAD,2022-07-21 22:00:00,15.34729251,0.0001483,53.2172,341.2902,41.7321,299.9548,-0.034121,-0.0106915999999999,0.0,0 STARLINK-4068,1 52681U 22053AB  22202.91667824 -.01069160  00000-0 -34121-1 0  9992,2 52681  53.2172 341.2902 0001483  41.7321 299.9548 15.34729251  1308,6839.861999999999,93.828,462.741,460.712,0.0
52681.0,STARLINK-4068,PAYLOAD,2022-07-22 06:00:00,15.33966369,0.0001405,53.2172,339.7313,44.3617,339.566,-0.034815,-0.01064957,0.0,0 STARLINK-4068,1 52681U 22053AB  22203.25001157 -.01064957  00000-0 -34815-1 0  9990,2 52681  53.2172 339.7313 0001405  44.3617 339.5660 15.33966369 10484,6842.129,93.874,464.956,463.033,0.0
52681.0,STARLINK-4068,PAYLOAD,2022-07-22 22:00:00,15.32448758,0.0001773,53.2172,336.6244,37.0141,68.6497,-0.036567,-0.01065925,0.0,0 STARLINK-4068,1 52681U 22053AB  22203.91667824 -.01065925  00000-0 -36567-1 0  9994,2 52681  53.2172 336.6244 0001773  37.0141  68.6497 15.32448758  1307,6846.646,93.967,469.725,467.297,0.0
52681.0,STARLINK-4068,PAYLOAD,2022-07-23 06:00:00,15.31689843,0.0001396999999999,53.2172,335.071,63.7221,81.4428,-0.037538,-0.01068082,0.0,0 STARLINK-4068,1 52681U 22053AB  22204.25001157 -.01068082  00000-0 -37538-1 0  9999,2 52681  53.2172 335.0710 0001397  63.7221  81.4428 15.31689843 10640,6848.906999999997,94.014,471.729,469.815,0.0
52681.0,STARLINK-4068,PAYLOAD,2022-07-23 14:00:01,15.30927907,0.0002003,53.2174,333.5226,36.2556,147.5604,-0.038267,-0.01063637,0.0,0 STARLINK-4068,1 52681U 22053AB  22204.58335648 -.01063637  00000-0 -38267-1 0  9991,2 52681  53.2174 333.5226 0002003  36.2556 147.5604 15.30927907  1306,6851.18,94.061,474.417,471.672,0.0
52681.0,STARLINK-4068,PAYLOAD,2022-07-23 22:00:00,15.30171696,0.0001518,53.2172,331.9747,55.2415,166.18400000000003,-0.039386,-0.01068633,0.0,0 STARLINK-4068,1 52681U 22053AB  22204.91667824 -.01068633  00000-0 -39386-1 0  9996,2 52681  53.2172 331.9747 0001518  55.2415 166.1840 15.30171696  1304,6853.437,94.107,476.342,474.261,0.0
52681.0,STARLINK-4068,PAYLOAD,2022-07-24 04:00:00,15.29598916,0.0001610999999999,53.2174,330.8135,47.9493,111.1353,-0.03988,-0.01063416,0.0,0 STARLINK-4068,1 52681U 22053AB  22205.16667824 -.01063416  00000-0 -39880-1 0  9997,2 52681  53.2174 330.8135 0001611  47.9493 111.1353 15.29598916 10780,6855.147,94.142,478.117,475.908,0.0
52681.0,STARLINK-4068,PAYLOAD,2022-07-24 14:00:01,15.28650073,0.0001853,53.2174,328.884,35.2961,258.7415,-0.041092,-0.01064024,0.0,0 STARLINK-4068,1 52681U 22053AB  22205.58334491 -.01064024  00000-0 -41092-1 0  9998,2 52681  53.2174 328.8840 0001853  35.2961 258.7415 15.28650073  1305,6857.984,94.201,481.12,478.578,0.0
52681.0,STARLINK-4068,PAYLOAD,2022-07-24 22:00:00,15.27893979,0.0001422,53.2172,327.3411,48.5812,280.3921,-0.042304,-0.01069603,0.0,0 STARLINK-4068,1 52681U 22053AB  22205.91667824 -.01069603  00000-0 -42304-1 0  9999,2 52681  53.2172 327.3411 0001422  48.5812 280.3921 15.27893979  1301,6860.246,94.247,483.087,481.136,0.0
52681.0,STARLINK-4068,PAYLOAD,2022-07-25 14:00:01,15.26373255,0.0001766999999999,53.2175,324.2612,35.6947,0.4143,-0.044176,-0.01066536,0.0,0 STARLINK-4068,1 52681U 22053AB  22206.58334491 -.01066536  00000-0 -44176-1 0  9995,2 52681  53.2175 324.2612 0001767  35.6947   0.4143 15.26373255  1307,6864.802,94.341,487.88,485.454,0.0
52681.0,STARLINK-4068,PAYLOAD,2022-07-25 22:00:00,15.25613311,0.0001594,53.2172,322.7236,42.3853,25.9229,-0.045166,-0.01065605,0.0,0 STARLINK-4068,1 52681U 22053AB  22206.91667824 -.01065605  00000-0 -45166-1 0  9997,2 52681  53.2172 322.7236 0001594  42.3853  25.9229 15.25613311 11046,6867.081,94.388,490.041,487.852,0.0
52681.0,STARLINK-4068,PAYLOAD,2022-07-26 14:00:01,15.24093652,0.000193,53.2174,319.6547,38.0907,91.8768,-0.0472389999999999,-0.01064736,0.0,0 STARLINK-4068,1 52681U 22053AB  22207.58334491 -.01064736  00000-0 -47239-1 0  9999,2 52681  53.2174 319.6547 0001930  38.0907  91.8768 15.24093652  1301,6871.645,94.482,494.837,492.184,0.0
52681.0,STARLINK-4068,PAYLOAD,2022-07-26 22:00:00,15.23333892,0.0001706,53.2173,318.1222,46.5051,112.9236,-0.048287,-0.01063891,0.0,0 STARLINK-4068,1 52681U 22053AB  22207.91667824 -.01063891  00000-0 -48287-1 0  9990,2 52681  53.2173 318.1222 0001706  46.5051 112.9236 15.23333892  1306,6873.93,94.53,496.968,494.622,0.0
52681.0,STARLINK-4068,PAYLOAD,2022-07-27 14:00:01,15.21813673,0.0001869,53.2175,315.0641,42.9029,172.7092,-0.050421,-0.01061981,0.0,0 STARLINK-4068,1 52681U 22053AB  22208.58334491 -.01061981  00000-0 -50421-1 0  9996,2 52681  53.2175 315.0641 0001869  42.9029 172.7092 15.21813673  1306,6878.507,94.624,501.658,499.086,0.0
52681.0,STARLINK-4068,PAYLOAD,2022-07-27 22:00:00,15.21056329,0.0001730999999999,53.2173,313.5368,44.4097,197.9249,-0.0517539999999999,-0.0106557,0.0,0 STARLINK-4068,1 52681U 22053AB  22208.91667824 -.01065570  00000-0 -51754-1 0  9990,2 52681  53.2173 313.5368 0001731  44.4097 197.9249 15.21056329  1303,6880.79,94.671,503.846,501.464,0.0
52681.0,STARLINK-4068,PAYLOAD,2022-07-28 14:00:01,15.19535735,0.0001726,53.2175,310.4896,42.6017,250.4401,-0.053949,-0.01062527,0.0,0 STARLINK-4068,1 52681U 22053AB  22209.58334491 -.01062527  00000-0 -53949-1 0  9992,2 52681  53.2175 310.4896 0001726  42.6017 250.4401 15.19535735  1308,6885.38,94.766,508.4330000000001,506.056,0.0
52681.0,STARLINK-4068,PAYLOAD,2022-07-28 22:00:00,15.18778172,0.0001488,53.2173,308.9674,48.9498,268.0769,-0.055365,-0.01079737,0.0,0 STARLINK-4068,1 52681U 22053AB  22209.91667824 -.01079737  00000-0 -55365-1 0  9993,2 52681  53.2173 308.9674 0001488  48.9498 268.0769 15.18778172  1304,6887.669,94.813,510.559,508.509,0.0
52681.0,STARLINK-4068,PAYLOAD,2022-07-29 14:00:01,15.17258675,0.0001851,53.2175,305.931,34.564,327.6934,-0.057773,-0.0107837,0.0,0 STARLINK-4068,1 52681U 22053AB  22210.58334491 -.01078370  00000-0 -57773-1 0  9996,2 52681  53.2175 305.9310 0001851  34.5640 327.6934 15.17258675  1300,6892.267,94.908,515.408,512.856,0.0
